UNKNOWN                 
1 82180U          22273.89776246  .00008834  00000+0  19678-2 0  9999
2 82180  65.6603 231.4464 0454354  81.7111 283.5209 14.08770367434929
UNKNOWN                 
1 82187U          22273.40300097  .00022405  00000+0  34766-2 0  9995
2 82187  70.9394 271.9052 0052991 148.6705 211.7624 14.72126646471490
UNKNOWN                 
1 82189U          22275.04738509  .00000331  00000+0  12823-3 0  9997
2 82189  74.0370  26.7064 0016041 144.3569 215.8657 14.33790233464980
UNKNOWN                 
1 82199U          22274.57233610  .00000506  00000+0  43973-3 0  9992
2 82199  82.9700  30.5828 0038793 112.0049 261.8716 13.83810514448023
UNKNOWN                 
1 82205U          22274.43433627  .00002589  00000+0  61315-3 0  9998
2 82205  63.0007 293.8313 0602313 177.2472 183.2150 13.81778294445877
UNKNOWN                 
1 82223U          22272.98273860  .00001328  00000+0  85010-3 0  9995
2 82223  99.3991 100.6244 0075699 342.2221  17.6298 14.03874000284226
UNKNOWN                 
1 82227U          22273.90170744  .00000057  00000+0  74148-3 0  9997
2 82227 101.8871 243.3441 0003148  57.4911 332.1028 12.42000043496052
UNKNOWN                 
1 82250U          22256.96129722  .00002142  00000+0  13968-2 0  9999
2 82250  98.9418 161.1701 0082599 276.3384 143.3061 14.01773825449868
UNKNOWN                 
1 82272U          22275.35711610  .00000866  00000+0  28547-2 0  9990
2 82272  67.5222 152.5621 0758395 133.0730 233.6365 12.32289621128031
UNKNOWN                 
1 82284U          22273.78664686  .00009604  00000+0  35268-2 0  9995
2 82284  99.5721  96.3294 0101830 207.2598 152.3215 14.30090935503997
UNKNOWN                 
1 82285U          22275.47046874  .00003558  00000+0  35168-2 0  9998
2 82285 101.9934  92.9728 0344616 340.9092  17.9382 13.56160768436716
UNKNOWN                 
1 82295U          22269.89539832  .00000637  00000+0  27448-3 0  9997
2 82295  66.6229 339.6696 0134961 325.8355  33.4108 14.26186525412192
UNKNOWN                 
1 82303U          22274.64905774  .00014336  00000+0  29708-1 0  9998
2 82303  81.9675 235.2042 0069198  30.9076 144.0234 13.31163563356396
UNKNOWN                 
1 82311U          22274.19491627  .00000596  00000+0  93271-3 0  9995
2 82311  99.5084   2.3101 0109525   7.5539 352.7217 13.52287801392255
UNKNOWN                 
1 82314U          22273.92920255  .00039389  00000+0  12536-2 0  9998
2 82314  99.2363  83.7604 0154437  74.2770 287.5434 15.21606944365680
UNKNOWN                 
1 82320U          22263.98627258  .00001218  00000+0  44235-3 0  9999
2 82320  99.8194 332.3031 0157990  13.6888 346.8500 14.28845217459610
UNKNOWN                 
1 82322U          22275.18521325  .00006949  00000+0  15777-2 0  9998
2 82322  98.5642 353.5207 0073559  63.6309 297.2415 14.54667440394810
UNKNOWN                 
1 82363U          22274.10557504  .00000647  00000+0  11134-2 0  9994
2 82363  66.9363 172.8022 0465274 191.3340 167.6933 13.14017628136635
UNKNOWN                 
1 82369U 99025    22274.84332025  .00000047  00000+0  63071-4 0  9998
2 82369  99.0019 304.3648 0083485 319.2358  40.2577 13.97140751394037
UNKNOWN                 
1 82381U          22275.49012148  .00005058  00000+0  15833-2 0  9998
2 82381  98.4776 110.8395 0016672 129.2081 231.0591 14.41009547340943
UNKNOWN                 
1 82383U          22274.12825462  .00024615  00000+0  28021-2 0  9993
2 82383  98.2650 336.2553 0005232  91.5915 268.5898 14.86169169373689
UNKNOWN                 
1 82402U          22274.80055884  .00002611  00000+0  29199-3 0  9993
2 82402  86.6641 292.1361 0012900  53.9242 306.3175 14.86474938280122
UNKNOWN                 
1 82410U          22273.69501669  .00000175  00000+0  25360-3 0  9994
2 82410  66.6551 262.4223 0055107  86.4299 274.3071 13.76199087425818
UNKNOWN                 
1 82428U          22275.10666671  .00033411  00000+0  25180-1 0  9993
2 82428  63.1704 172.0960 0106479  54.4907 306.6016 13.91389358258229
UNKNOWN                 
1 82432U 93036    22273.74988545  .00001811  00000+0  45274-3 0  9991
2 82432  74.0108  35.6009 0062394 124.2297 236.4797 14.51076747312944
UNKNOWN                 
1 82448U          22274.92440949  .00002989  00000+0  33492-3 0  9995
2 82448  85.8733  93.5623 0013038 104.1151 256.1523 14.86436121262705
UNKNOWN                 
1 82451U          22273.01045934  .00030321  00000+0  26599-2 0  9993
2 82451  66.5329  49.3912 0248166 271.9844  85.2875 14.75762688960546
UNKNOWN                 
1 82453U          22275.14623347  .00000017  00000+0  45599-3 0  9992
2 82453 102.0051 224.4685 0093383 207.9638 151.6388 12.39554271401382
UNKNOWN                 
1 82458U          22272.42446652  .00000815  00000+0  49668-3 0  9994
2 82458  66.5124 318.3242 0056072  78.3338 282.4034 14.10459123444339
UNKNOWN                 
1 82464U          22273.99396156  .00008757  00000+0  24049-2 0  9995
2 82464  70.9979 139.0852 0078095 132.0143 295.2049 14.45443149464833
UNKNOWN                 
1 82475U          22269.40203884  .00001481  00000+0  88914-3 0  9992
2 82475  99.1180 311.9082 0107338 131.4653 229.5793 14.05648563380993
UNKNOWN                 
1 82484U          22274.12166978  .00000123  00000+0  23868-3 0  9998
2 82484  99.5007 332.3822 0044014 269.3588  90.2507 13.55173759432317
UNKNOWN                 
1 82494U 93036    22275.23650054  .00003546  00000+0  89920-3 0  9999
2 82494  74.0202 108.6245 0011551 157.4090 202.7582 14.51164139312758
UNKNOWN                 
1 82500U          22275.30148612  .00002131  00000+0  12347-2 0  9993
2 82500  70.9709 285.0672 0137469  71.0817 290.5144 14.05295082454243
UNKNOWN                 
1 82517U          22275.34884366  .00012432  00000+0  33114-2 0  9998
2 82517  86.3900 220.5882 0019781 124.7949 235.5119 14.48296361254506
UNKNOWN                 
1 82524U          22275.54245549  .00005155  00000+0  22628-2 0  9994
2 82524  73.2930 221.1357 0173142  35.8158  84.3970 14.16167877410853
UNKNOWN                 
1 82526U          22275.10936480  .00002367  00000+0  15102-2 0  9990
2 82526  99.2227 323.7054 0101106 311.0006  48.2448 14.02110079357819
UNKNOWN                 
1 82529U          22275.03914196  .00000445  00000+0  76279-3 0  9993
2 82529  99.7954  20.5815 0248591 202.5441 334.3809 13.38896602433353
UNKNOWN                 
1 82545U          22275.26458005 -.00000031  00000+0  31950-3 0  9997
2 82545  64.8813 264.3196 0171937 159.4302 201.3655 11.30784466306909
UNKNOWN                 
1 82560U          22275.05509072  .00000977  00000+0  89292-3 0  9992
2 82560 100.0327 119.8861 0009445 128.2683  23.1431 13.85984805449868
UNKNOWN                 
1 82561U          22274.86353731  .00004358  00000+0  12264-2 0  9991
2 82561  63.1133 320.9041 0512011  12.6952 160.9774 13.90430328448671
UNKNOWN                 
1 82576U          22275.56038082  .00001915  00000+0  12440-2 0  9996
2 82576  99.2404 311.6698 0117111 345.1859  14.5885 14.00545479 70398
UNKNOWN                 
1 82597U          22275.54190166  .00000947  00000+0  38780-3 0  9999
2 82597  66.7736 322.7051 0096198  96.3509 264.8555 14.28947616461850
UNKNOWN                 
1 82616U          22274.91509347  .00032144  00000+0  31995-2 0  9990
2 82616  97.2857 337.9386 0081005 194.3416 165.5503 14.89089660392756
UNKNOWN                 
1 82617U          22275.30388997  .00000517  00000+0  14958-3 0  9991
2 82617  74.0261 269.4775 0039645 142.7785 217.6133 14.46530754467860
UNKNOWN                 
1 82627U          22272.70740983  .00000368  00000+0  96519-3 0  9997
2 82627  82.4801   1.2733 0014146 142.2426  10.7259 13.14043725425031
UNKNOWN                 
1 82642U          22275.21136536  .00000677  00000+0  45027-3 0  9997
2 82642  98.9964 183.5542 0141736 243.6774 114.9775 13.99975540452380
UNKNOWN                 
1 82683U 99057    22275.11347383  .00002080  00000+0  86947-3 0  9991
2 82683  98.1393  59.9977 0226618 196.6810 162.6825 14.14160274296900
UNKNOWN                 
1 82693U          22274.55362834  .00001888  00000+0  25297-2 0  9992
2 82693 100.5297 124.0742 0048822  28.4361 331.9426 13.61168959394386
UNKNOWN                 
1 82698U          22275.53628394  .00002793  00000+0  17240-2 0  9997
2 82698  61.6157  17.1411 0718537 224.6538 129.4410 13.22167874383643
UNKNOWN                 
1 82708U          22270.16744933  .00000787  00000+0  32892-2 0  9992
2 82708 102.1534 348.9026 0066413 133.0159 227.6521 12.87529879372440
UNKNOWN                 
1 82729U          22274.94256349 -.00000007  00000+0  11110-3 0  9991
2 82729  67.9602   2.4456 0832155  89.4795 280.1391 12.16308490393101
UNKNOWN                 
1 82737U          22275.44689174  .00016744  00000+0  20495-1 0  9990
2 82737 102.8372  95.0077 0314553 192.8800 166.4145 13.46856863387745
UNKNOWN                 
1 82739U          22275.04688424  .00001651  00000+0  15168-2 0  9998
2 82739  99.0300 106.4802 0181437 168.3811 346.6575 13.77028739445090
UNKNOWN                 
1 82741U          22275.33126572  .00001860  00000+0  23252-2 0  9999
2 82741 102.8719 289.6101 0210652 341.6999  17.6630 13.57626836438203
UNKNOWN                 
1 82755U          22275.44509583  .00035758  00000+0  44592-2 0  9996
2 82755  99.8093  87.3807 0003288 248.7440 111.3416 14.82307786472770
UNKNOWN                 
1 82783U          22275.21312186  .00000506  00000+0  14950-2 0  9991
2 82783  90.3154   3.2137 0018590  20.1224 340.0631 13.07169715351727
UNKNOWN                 
1 82785U          22274.95391070  .00025473  00000+0  34065-2 0  9991
2 82785  63.1201 160.0009 0391071  54.2189 309.4577 14.38103857462299
UNKNOWN                 
1 82798U          22273.61790874  .00001768  00000+0  90124-3 0  9992
2 82798  82.9539  42.0174 0034197  79.5934 293.8039 14.14946342146611
UNKNOWN                 
1 82820U          22275.46403409  .00002137  00000+0  96600-3 0  9994
2 82820  99.8122 281.9224 0060348  68.5332 292.2264 14.22347432459073
